CTC1_L_00464001-01
1 31053U 26905MC  26037.47806713  .00000000  00000+0  00000-0 0  9997
2 31053  42.0000   0.0000 0000000   0.0000   0.0000 14.22769928    11
CTC1_L_00464002-01
1 31054U 24087CU  26037.47806713  .00000000  00000+0  00000-0 0  9997
2 31054  42.0000  12.0000 0000000   0.0000  48.0000 14.22769928    17
CTC1_L_00464003-01
1 31055U 24261UW  26037.47806713  .00000000  00000+0  00000-0 0  9992
2 31055  42.0000  24.0000 0000000   0.0000  96.0000 14.22769928    14
CTC1_L_00464004-01
1 31056U 25748OZ  26037.47806713  .00000000  00000+0  00000-0 0  9994
2 31056  42.0000  36.0000 0000000   0.0000 144.0000 14.22769928    12
CTC1_L_00464005-01
1 31057U 25026ZB  26037.47806713  .00000000  00000+0  00000-0 0  9994
2 31057  42.0000  48.0000 0000000   0.0000 192.0000 14.22769928    19
CTC1_L_00464006-01
1 31058U 24738TC  26037.47806713  .00000000  00000+0  00000-0 0  9994
2 31058  42.0000  60.0000 0000000   0.0000 240.0000 14.22769928    18
CTC1_L_00464007-01
1 31059U 25014GF  26037.47806713  .00000000  00000+0  00000-0 0  9993
2 31059  42.0000  72.0000 0000000   0.0000 288.0000 14.22769928    14
CTC1_L_00464008-01
1 31060U 23833ES  26037.47806713  .00000000  00000+0  00000-0 0  9992
2 31060  42.0000  84.0000 0000000   0.0000 336.0000 14.22769928    13
CTC1_L_00464009-01
1 31061U 23175BF  26037.47806713  .00000000  00000+0  00000-0 0  9992
2 31061  42.0000  96.0000 0000000   0.0000  24.0000 14.22769928    11
CTC1_L_00464010-01
1 31062U 26401IH  26037.47806713  .00000000  00000+0  00000-0 0  9998
2 31062  42.0000 108.0000 0000000   0.0000  72.0000 14.22769928    19
CTC1_L_00464011-01
1 31063U 26285LJ  26037.47806713  .00000000  00000+0  00000-0 0  9999
2 31063  42.0000 120.0000 0000000   0.0000 120.0000 14.22769928    18
CTC1_L_00464012-01
1 31064U 24195YN  26037.47806713  .00000000  00000+0  00000-0 0  9998
2 31064  42.0000 132.0000 0000000   0.0000 168.0000 14.22769928    14
CTC1_L_00464013-01
1 31065U 24629HG  26037.47806713  .00000000  00000+0  00000-0 0  9991
2 31065  42.0000 144.0000 0000000   0.0000 216.0000 14.22769928    12
CTC1_L_00464014-01
1 31066U 25234DM  26037.47806713  .00000000  00000+0  00000-0 0  9995
2 31066  42.0000 156.0000 0000000   0.0000 264.0000 14.22769928    19
CTC1_L_00464015-01
1 31067U 25561ZT  26037.47806713  .00000000  00000+0  00000-0 0  9999
2 31067  42.0000 168.0000 0000000   0.0000 312.0000 14.22769928    17
CTC1_L_00464016-01
1 31068U 25146VU  26037.47806713  .00000000  00000+0  00000-0 0  9999
2 31068  42.0000 180.0000 0000000   0.0000   0.0000 14.22769928    16
CTC1_L_00464017-01
1 31069U 25994LF  26037.47806713  .00000000  00000+0  00000-0 0  9991
2 31069  42.0000 192.0000 0000000   0.0000  48.0000 14.22769928    12
CTC1_L_00464018-01
1 31070U 25292QD  26037.47806713  .00000000  00000+0  00000-0 0  9994
2 31070  42.0000 204.0000 0000000   0.0000  96.0000 14.22769928    11
CTC1_L_00464019-01
1 31071U 24366RF  26037.47806713  .00000000  00000+0  00000-0 0  9996
2 31071  42.0000 216.0000 0000000   0.0000 144.0000 14.22769928    19
CTC1_L_00464020-01
1 31072U 25162QE  26037.47806713  .00000000  00000+0  00000-0 0  9992
2 31072  42.0000 228.0000 0000000   0.0000 192.0000 14.22769928    16
CTC1_L_00464021-01
1 31073U 23739VM  26037.47806713  .00000000  00000+0  00000-0 0  9991
2 31073  42.0000 240.0000 0000000   0.0000 240.0000 14.22769928    15
CTC1_L_00464022-01
1 31074U 25074II  26037.47806713  .00000000  00000+0  00000-0 0  9996
2 31074  42.0000 252.0000 0000000   0.0000 288.0000 14.22769928    11
CTC1_L_00464023-01
1 31075U 23133EF  26037.47806713  .00000000  00000+0  00000-0 0  9991
2 31075  42.0000 264.0000 0000000   0.0000 336.0000 14.22769928    19
CTC1_L_00464024-01
1 31076U 26274GD  26037.47806713  .00000000  00000+0  00000-0 0  9991
2 31076  42.0000 276.0000 0000000   0.0000  24.0000 14.22769928    17
CTC1_L_00464025-01
1 31077U 26012RG  26037.47806713  .00000000  00000+0  00000-0 0  9992
2 31077  42.0000 288.0000 0000000   0.0000  72.0000 14.22769928    14
CTC1_L_00464026-01
1 31078U 23471FL  26037.47806713  .00000000  00000+0  00000-0 0  9999
2 31078  42.0000 300.0000 0000000   0.0000 120.0000 14.22769928    14
CTC1_L_00464027-01
1 31079U 25960BT  26037.47806713  .00000000  00000+0  00000-0 0  9995
2 31079  42.0000 312.0000 0000000   0.0000 168.0000 14.22769928    10
CTC1_L_00464028-01
1 31080U 24077JB  26037.47806713  .00000000  00000+0  00000-0 0  9995
2 31080  42.0000 324.0000 0000000   0.0000 216.0000 14.22769928    19
CTC1_L_00464029-01
1 31081U 25996KX  26037.47806713  .00000000  00000+0  00000-0 0  9997
2 31081  42.0000 336.0000 0000000   0.0000 264.0000 14.22769928    16
CTC1_L_00464030-01
1 31082U 25634OI  26037.47806713  .00000000  00000+0  00000-0 0  9997
2 31082  42.0000 348.0000 0000000   0.0000 312.0000 14.22769928    14
